[{"OBJECT_NAME":"STARLINK-3107","OBJECT_ID":"2021-082AT","EPOCH":"2026-03-09T21:59:27.140640","MEAN_MOTION":15.10504087,"ECCENTRICITY":0.00073375,"INCLINATION":69.9932,"RA_OF_ASC_NODE":287.3824,"ARG_OF_PERICENTER":250.2407,"MEAN_ANOMALY":109.7967,"EPHEMERIS_TYPE":0,"CLASSIFICATION_TYPE":"U","NORAD_CAT_ID":49171,"ELEMENT_SET_NO":999,"REV_AT_EPOCH":24733,"BSTAR":0.001517345,"MEAN_MOTION_DOT":0.00025048,"MEAN_MOTION_DDOT":0},{"OBJECT_NAME":"STARLINK-5214","OBJECT_ID":"2022-175E","EPOCH":"2026-03-09T22:13:12.468864","MEAN_MOTION":15.08845997,"ECCENTRICITY":0.00014905,"INCLINATION":53.2188,"RA_OF_ASC_NODE":43.1341,"ARG_OF_PERICENTER":100.2873,"MEAN_ANOMALY":259.8287,"EPHEMERIS_TYPE":0,"CLASSIFICATION_TYPE":"U","NORAD_CAT_ID":54762,"ELEMENT_SET_NO":999,"REV_AT_EPOCH":17995,"BSTAR":-4.3046126e-5,"MEAN_MOTION_DOT":-9.73e-6,"MEAN_MOTION_DDOT":0}]
